{
  "type": "FeatureCollection",
  "name": "mumbai_bmc_boundary",
  "crs": {
    "type": "name",
    "properties": {
      "name": "urn:ogc:def:crs:OGC:1.3:CRS84"
    }
  },
  "features": [
    {
      "type": "Feature",
      "properties": {
        "name": "Greater Mumbai",
        "admin_level": "Municipal Corporation (BMC)",
        "state": "Maharashtra",
        "area_sqkm": 437.71
      },
      "geometry": {
        "type": "Polygon",
        "coordinates": [
          [
            [
              72.785,
              18.895
            ],
            [
              72.82,
              18.91
            ],
            [
              72.845,
              18.96
            ],
            [
              72.87,
              19.01
            ],
            [
              72.91,
              19.04
            ],
            [
              72.935,
              19.08
            ],
            [
              72.955,
              19.14
            ],
            [
              72.965,
              19.2
            ],
            [
              72.935,
              19.26
            ],
            [
              72.88,
              19.285
            ],
            [
              72.845,
              19.26
            ],
            [
              72.825,
              19.21
            ],
            [
              72.815,
              19.16
            ],
            [
              72.81,
              19.11
            ],
            [
              72.82,
              19.06
            ],
            [
              72.81,
              19.01
            ],
            [
              72.795,
              18.97
            ],
            [
              72.785,
              18.895
            ]
          ]
        ]
      }
    }
  ]
}